[
    {
        "Altitude(m)": 557848.9500855895,
        "Argument of Periapsis(deg)": 0.006622991110713501,
        "Eccentricity": 0.0,
        "Inclination(deg)": 53.0,
        "Latitude(deg)": -16.650319253292565,
        "Longitude(deg)": 36.27519055298792,
        "Mean Anomaly(deg)": -20.81750713242241,
        "RAAN(deg)": 149.99014336852804,
        "Satellite Name": "Starlink Shell 1 680",
        "Satellite Number": 680,
        "Semi-Major Axis(m)": 6931778.249405717,
        "Time(s)": 190
    },
    {
        "Altitude(m)": 557703.7319766724,
        "Argument of Periapsis(deg)": 0.0069715695902247375,
        "Eccentricity": 0.0,
        "Inclination(deg)": 53.0,
        "Latitude(deg)": -16.15959763423144,
        "Longitude(deg)": 36.64263182709221,
        "Mean Anomaly(deg)": -20.19067592886564,
        "RAAN(deg)": 149.98962459845055,
        "Satellite Name": "Starlink Shell 1 680",
        "Satellite Number": 680,
        "Semi-Major Axis(m)": 6931778.249405717,
        "Time(s)": 200
    },
    {
        "Altitude(m)": 557560.3816950722,
        "Argument of Periapsis(deg)": 0.007320148069735974,
        "Eccentricity": 0.0,
        "Inclination(deg)": 53.0,
        "Latitude(deg)": -15.668059062082868,
        "Longitude(deg)": 37.00807386767589,
        "Mean Anomaly(deg)": -19.563844725308996,
        "RAAN(deg)": 149.98910582837308,
        "Satellite Name": "Starlink Shell 1 680",
        "Satellite Number": 680,
        "Semi-Major Axis(m)": 6931778.249405717,
        "Time(s)": 210
    },
    {
        "Altitude(m)": 557418.9462328185,
        "Argument of Periapsis(deg)": 0.007668726549247212,
        "Eccentricity": 0.0,
        "Inclination(deg)": 53.0,
        "Latitude(deg)": -15.175732702729036,
        "Longitude(deg)": 37.37158702864895,
        "Mean Anomaly(deg)": -18.937013521752323,
        "RAAN(deg)": 149.98858705829562,
        "Satellite Name": "Starlink Shell 1 680",
        "Satellite Number": 680,
        "Semi-Major Axis(m)": 6931778.249405717,
        "Time(s)": 220
    },
    {
        "Altitude(m)": 557279.4715809771,
        "Argument of Periapsis(deg)": 0.00801730502875845,
        "Eccentricity": 0.0,
        "Inclination(deg)": 53.0,
        "Latitude(deg)": -14.682647302234361,
        "Longitude(deg)": 37.73324085567341,
        "Mean Anomaly(deg)": -18.310182318195555,
        "RAAN(deg)": 149.98806828821813,
        "Satellite Name": "Starlink Shell 1 680",
        "Satellite Number": 680,
        "Semi-Major Axis(m)": 6931778.249405717,
        "Time(s)": 230
    },
    {
        "Altitude(m)": 557142.00270952,
        "Argument of Periapsis(deg)": 0.008365883508269684,
        "Eccentricity": 0.0,
        "Inclination(deg)": 53.0,
        "Latitude(deg)": -14.18883120395891,
        "Longitude(deg)": 38.09310461706856,
        "Mean Anomaly(deg)": -17.683351114638807,
        "RAAN(deg)": 149.98754951814067,
        "Satellite Name": "Starlink Shell 1 680",
        "Satellite Number": 680,
        "Semi-Major Axis(m)": 6931778.249405717,
        "Time(s)": 240
    },
    {
        "Altitude(m)": 557006.5835476863,
        "Argument of Periapsis(deg)": 0.008714461987780921,
        "Eccentricity": 0.0,
        "Inclination(deg)": 53.0,
        "Latitude(deg)": -13.694312365317515,
        "Longitude(deg)": 38.45124632189656,
        "Mean Anomaly(deg)": -17.056519911082162,
        "RAAN(deg)": 149.9870307480632,
        "Satellite Name": "Starlink Shell 1 680",
        "Satellite Number": 680,
        "Semi-Major Axis(m)": 6931778.249405717,
        "Time(s)": 250
    },
    {
        "Altitude(m)": 556873.2569648819,
        "Argument of Periapsis(deg)": 0.009063040467292158,
        "Eccentricity": 0.0,
        "Inclination(deg)": 53.0,
        "Latitude(deg)": -13.199118374192887,
        "Longitude(deg)": 38.80773325095031,
        "Mean Anomaly(deg)": -16.429688707525493,
        "RAAN(deg)": 149.9865119779857,
        "Satellite Name": "Starlink Shell 1 680",
        "Satellite Number": 680,
        "Semi-Major Axis(m)": 6931778.249405717,
        "Time(s)": 260
    },
    {
        "Altitude(m)": 556742.0647520608,
        "Argument of Periapsis(deg)": 0.009411618946803396,
        "Eccentricity": 0.0,
        "Inclination(deg)": 53.0,
        "Latitude(deg)": -12.70327646501743,
        "Longitude(deg)": 39.162632487750656,
        "Mean Anomaly(deg)": -15.802857503968719,
        "RAAN(deg)": 149.98599320790825,
        "Satellite Name": "Starlink Shell 1 680",
        "Satellite Number": 680,
        "Semi-Major Axis(m)": 6931778.249405717,
        "Time(s)": 270
    },
    {
        "Altitude(m)": 556613.0476036557,
        "Argument of Periapsis(deg)": 0.009760197426314633,
        "Eccentricity": 0.0,
        "Inclination(deg)": 53.0,
        "Latitude(deg)": -12.206813534538103,
        "Longitude(deg)": 39.51600993666103,
        "Mean Anomaly(deg)": -15.176026300411975,
        "RAAN(deg)": 149.9854744378308,
        "Satellite Name": "Starlink Shell 1 680",
        "Satellite Number": 680,
        "Semi-Major Axis(m)": 6931778.249405717,
        "Time(s)": 280
    },
    {
        "Altitude(m)": 556486.2451000517,
        "Argument of Periapsis(deg)": 0.01010877590582587,
        "Eccentricity": 0.0,
        "Inclination(deg)": 53.0,
        "Latitude(deg)": -11.709756157271913,
        "Longitude(deg)": 39.86793085385096,
        "Mean Anomaly(deg)": -14.549195096855303,
        "RAAN(deg)": 149.9849556677533,
        "Satellite Name": "Starlink Shell 1 680",
        "Satellite Number": 680,
        "Semi-Major Axis(m)": 6931778.249405717,
        "Time(s)": 290
    },
    {
        "Altitude(m)": 556361.6956906236,
        "Argument of Periapsis(deg)": 0.010457354385337106,
        "Eccentricity": 0.0,
        "Inclination(deg)": 53.0,
        "Latitude(deg)": -11.212130600666914,
        "Longitude(deg)": 40.21846037822157,
        "Mean Anomaly(deg)": -13.922363893298556,
        "RAAN(deg)": 149.9844368976758,
        "Satellite Name": "Starlink Shell 1 680",
        "Satellite Number": 680,
        "Semi-Major Axis(m)": 6931778.249405717,
        "Time(s)": 300
    },
    {
        "Altitude(m)": 556239.4366772707,
        "Argument of Periapsis(deg)": 0.010805932864848343,
        "Eccentricity": 0.0,
        "Inclination(deg)": 53.0,
        "Latitude(deg)": -10.713962839984019,
        "Longitude(deg)": 40.56766254940793,
        "Mean Anomaly(deg)": -13.29553268974181,
        "RAAN(deg)": 149.98391812759837,
        "Satellite Name": "Starlink Shell 1 680",
        "Satellite Number": 680,
        "Semi-Major Axis(m)": 6931778.249405717,
        "Time(s)": 310
    },
    {
        "Altitude(m)": 556119.5041986083,
        "Argument of Periapsis(deg)": 0.01115451134435958,
        "Eccentricity": 0.0,
        "Inclination(deg)": 53.0,
        "Latitude(deg)": -10.215278572906122,
        "Longitude(deg)": 40.91560083859594,
        "Mean Anomaly(deg)": -12.668701486185114,
        "RAAN(deg)": 149.98339935752088,
        "Satellite Name": "Starlink Shell 1 680",
        "Satellite Number": 680,
        "Semi-Major Axis(m)": 6931778.249405717,
        "Time(s)": 320
    },
    {
        "Altitude(m)": 556001.9332146653,
        "Argument of Periapsis(deg)": 0.011503089823870818,
        "Eccentricity": 0.0,
        "Inclination(deg)": 53.0,
        "Latitude(deg)": -9.71610323388976,
        "Longitude(deg)": 41.2623386792722,
        "Mean Anomaly(deg)": -12.041870282628368,
        "RAAN(deg)": 149.98288058744342,
        "Satellite Name": "Starlink Shell 1 680",
        "Satellite Number": 680,
        "Semi-Major Axis(m)": 6931778.249405717,
        "Time(s)": 330
    },
    {
        "Altitude(m)": 555886.7574921771,
        "Argument of Periapsis(deg)": 0.011851668303382053,
        "Eccentricity": 0.0,
        "Inclination(deg)": 53.0,
        "Latitude(deg)": -9.216462008274405,
        "Longitude(deg)": 41.60793848502768,
        "Mean Anomaly(deg)": -11.41503907907162,
        "RAAN(deg)": 149.98236181736593,
        "Satellite Name": "Starlink Shell 1 680",
        "Satellite Number": 680,
        "Semi-Major Axis(m)": 6931778.249405717,
        "Time(s)": 340
    },
    {
        "Altitude(m)": 555774.0095905233,
        "Argument of Periapsis(deg)": 0.012200246782893292,
        "Eccentricity": 0.0,
        "Inclination(deg)": 53.0,
        "Latitude(deg)": -8.716379846155794,
        "Longitude(deg)": 41.952462180156935,
        "Mean Anomaly(deg)": -10.788207875514951,
        "RAAN(deg)": 149.98184304728846,
        "Satellite Name": "Starlink Shell 1 680",
        "Satellite Number": 680,
        "Semi-Major Axis(m)": 6931778.249405717,
        "Time(s)": 350
    },
    {
        "Altitude(m)": 555663.720848183,
        "Argument of Periapsis(deg)": 0.012548825262404526,
        "Eccentricity": 0.0,
        "Inclination(deg)": 53.0,
        "Latitude(deg)": -8.215881476038435,
        "Longitude(deg)": 42.295971730176404,
        "Mean Anomaly(deg)": -10.161376671958307,
        "RAAN(deg)": 149.98132427721097,
        "Satellite Name": "Starlink Shell 1 680",
        "Satellite Number": 680,
        "Semi-Major Axis(m)": 6931778.249405717,
        "Time(s)": 360
    },
    {
        "Altitude(m)": 555555.9213698631,
        "Argument of Periapsis(deg)": 0.012897403741915765,
        "Eccentricity": 0.0,
        "Inclination(deg)": 53.0,
        "Latitude(deg)": -7.714991418281676,
        "Longitude(deg)": 42.63852815938633,
        "Mean Anomaly(deg)": -9.534545468401534,
        "RAAN(deg)": 149.98080550713354,
        "Satellite Name": "Starlink Shell 1 680",
        "Satellite Number": 680,
        "Semi-Major Axis(m)": 6931778.249405717,
        "Time(s)": 370
    }
]